start=new Date('2021-09-10T00:00:00.000Z').valueOf();
sats=[{"REF_FRAME":"TEME","BSTAR":"0.00009514900000","OBJECT_NAME":"STARLINK-1489","CENTER_NAME":"EARTH","TLE_LINE1":"1 45776U 20038AY  21252.54803050  .00001136  00000-0  95149-4 0  9992","MEAN_MOTION_DDOT":"0.0000000000000","LAUNCH_DATE":"2020-06-13","PERIAPSIS":"546.422","SEMIMAJOR_AXIS":"6925.349","PERIOD":"95.592","TLE_LINE2":"2 45776  53.0547   8.4926 0001143 115.5847 244.5260 15.06400004 69259","OBJECT_TYPE":"PAYLOAD","MEAN_MOTION_DOT":"0.00001136","MEAN_ELEMENT_THEORY":"SGP4","ARG_OF_PERICENTER":"115.5847","ELEMENT_SET_NO":"999","FILE":"3111654","GP_ID":"184379596","APOAPSIS":"548.005","MEAN_ANOMALY":"244.5260","ECCENTRICITY":"0.00011430","RA_OF_ASC_NODE":"8.4926","MEAN_MOTION":"15.06400004","TIME_SYSTEM":"UTC","OBJECT_ID":"2020-038AY","RCS_SIZE":"LARGE","COUNTRY_CODE":"US","EPOCH":"2021-09-09T13:09:09.835200","INCLINATION":"53.0547","NORAD_CAT_ID":"45776","SITE":"AFETR","DECAY_DATE":null,"EPHEMERIS_TYPE":"0","CLASSIFICATION_TYPE":"U","REV_AT_EPOCH":"6925"},{"INCLINATION":"53.0561","COUNTRY_CODE":"US","EPOCH":"2021-09-09T19:26:01.356288","RCS_SIZE":"LARGE","REV_AT_EPOCH":"6929","CLASSIFICATION_TYPE":"U","DECAY_DATE":null,"EPHEMERIS_TYPE":"0","SITE":"AFETR","NORAD_CAT_ID":"45777","ECCENTRICITY":"0.00012000","APOAPSIS":"548.041","MEAN_ANOMALY":"242.3091","GP_ID":"184406016","FILE":"3111873","OBJECT_ID":"2020-038AZ","TIME_SYSTEM":"UTC","RA_OF_ASC_NODE":"7.3117","MEAN_MOTION":"15.06401093","TLE_LINE2":"2 45777  53.0561   7.3117 0001200 117.8020 242.3091 15.06401093 69299","SEMIMAJOR_AXIS":"6925.345","PERIOD":"95.592","PERIAPSIS":"546.379","ELEMENT_SET_NO":"999","ARG_OF_PERICENTER":"117.8020","OBJECT_TYPE":"PAYLOAD","MEAN_ELEMENT_THEORY":"SGP4","MEAN_MOTION_DOT":"0.00000139","TLE_LINE1":"1 45777U 20038AZ  21252.80973792  .00000139  00000-0  28238-4 0  9990","OBJECT_NAME":"STARLINK-1490","CENTER_NAME":"EARTH","BSTAR":"0.00002823800000","REF_FRAME":"TEME","LAUNCH_DATE":"2020-06-13","MEAN_MOTION_DDOT":"0.0000000000000"},{"OBJECT_ID":"2020-038BA","TIME_SYSTEM":"UTC","MEAN_MOTION":"15.06396497","RA_OF_ASC_NODE":"8.5912","ECCENTRICITY":"0.00013710","APOAPSIS":"548.174","MEAN_ANOMALY":"244.7050","GP_ID":"184384444","FILE":"3111747","CLASSIFICATION_TYPE":"U","REV_AT_EPOCH":"7035","DECAY_DATE":null,"EPHEMERIS_TYPE":"0","SITE":"AFETR","NORAD_CAT_ID":"45778","INCLINATION":"53.0551","COUNTRY_CODE":"US","EPOCH":"2021-09-09T12:37:19.623648","RCS_SIZE":"LARGE","LAUNCH_DATE":"2020-06-13","MEAN_MOTION_DDOT":"0.0000000000000","TLE_LINE1":"1 45778U 20038BA  21252.52592157 -.00000429  00000-0 -99249-5 0  9997","OBJECT_NAME":"STARLINK-1491","CENTER_NAME":"EARTH","BSTAR":"-0.00000992490000","REF_FRAME":"TEME","ELEMENT_SET_NO":"999","ARG_OF_PERICENTER":"115.4081","OBJECT_TYPE":"PAYLOAD","MEAN_ELEMENT_THEORY":"SGP4","MEAN_MOTION_DOT":"-0.00000429","TLE_LINE2":"2 45778  53.0551   8.5912 0001371 115.4081 244.7050 15.06396497 70356","SEMIMAJOR_AXIS":"6925.359","PERIOD":"95.592","PERIAPSIS":"546.275"},{"MEAN_MOTION_DDOT":"0.0000000000000","LAUNCH_DATE":"2020-06-13","REF_FRAME":"TEME","BSTAR":"0.00014509000000","OBJECT_NAME":"STARLINK-1492","CENTER_NAME":"EARTH","TLE_LINE1":"1 45779U 20038BB  21252.72126421  .00001881  00000-0  14509-3 0  9992","MEAN_MOTION_DOT":"0.00001881","MEAN_ELEMENT_THEORY":"SGP4","OBJECT_TYPE":"PAYLOAD","ARG_OF_PERICENTER":"116.0397","ELEMENT_SET_NO":"999","PERIAPSIS":"546.337","SEMIMAJOR_AXIS":"6925.337","PERIOD":"95.592","TLE_LINE2":"2 45779  53.0564   7.7140 0001249 116.0397 244.0721 15.06403729 69269","RA_OF_ASC_NODE":"7.7140","MEAN_MOTION":"15.06403729","OBJECT_ID":"2020-038BB","TIME_SYSTEM":"UTC","FILE":"3111873","GP_ID":"184407018","MEAN_ANOMALY":"244.0721","APOAPSIS":"548.067","ECCENTRICITY":"0.00012490","NORAD_CAT_ID":"45779","SITE":"AFETR","EPHEMERIS_TYPE":"0","DECAY_DATE":null,"CLASSIFICATION_TYPE":"U","REV_AT_EPOCH":"6926","RCS_SIZE":"LARGE","EPOCH":"2021-09-09T17:18:37.227744","COUNTRY_CODE":"US","INCLINATION":"53.0564"},{"FILE":"3111873","GP_ID":"184407258","MEAN_ANOMALY":"246.2326","APOAPSIS":"548.144","ECCENTRICITY":"0.00013440","MEAN_MOTION":"15.06400017","RA_OF_ASC_NODE":"7.6627","OBJECT_ID":"2020-038BC","TIME_SYSTEM":"UTC","RCS_SIZE":"LARGE","EPOCH":"2021-09-09T17:34:33.603168","COUNTRY_CODE":"US","INCLINATION":"53.0562","NORAD_CAT_ID":"45780","SITE":"AFETR","EPHEMERIS_TYPE":"0","DECAY_DATE":null,"CLASSIFICATION_TYPE":"U","REV_AT_EPOCH":"6926","REF_FRAME":"TEME","BSTAR":"0.00002241500000","CENTER_NAME":"EARTH","OBJECT_NAME":"STARLINK-1496","TLE_LINE1":"1 45780U 20038BC  21252.73233337  .00000052  00000-0  22415-4 0  9995","MEAN_MOTION_DDOT":"0.0000000000000","LAUNCH_DATE":"2020-06-13","PERIAPSIS":"546.283","PERIOD":"95.592","SEMIMAJOR_AXIS":"6925.349","TLE_LINE2":"2 45780  53.0562   7.6627 0001344 113.8804 246.2326 15.06400017 69264","MEAN_MOTION_DOT":"0.00000052","MEAN_ELEMENT_THEORY":"SGP4","OBJECT_TYPE":"PAYLOAD","ARG_OF_PERICENTER":"113.8804","ELEMENT_SET_NO":"999"},{"OBJECT_NAME":"STARLINK-1497","CENTER_NAME":"EARTH","TLE_LINE1":"1 45781U 20038BD  21252.75813243  .00001703  00000-0  13320-3 0  9996","REF_FRAME":"TEME","BSTAR":"0.00013320000000","LAUNCH_DATE":"2020-06-13","MEAN_MOTION_DDOT":"0.0000000000000","PERIOD":"95.592","SEMIMAJOR_AXIS":"6925.356","TLE_LINE2":"2 45781  53.0557   7.5497 0001254 118.5165 241.5950 15.06397552 69276","PERIAPSIS":"546.353","ELEMENT_SET_NO":"999","OBJECT_TYPE":"PAYLOAD","MEAN_MOTION_DOT":"0.00001703","MEAN_ELEMENT_THEORY":"SGP4","ARG_OF_PERICENTER":"118.5165","APOAPSIS":"548.090","MEAN_ANOMALY":"241.5950","ECCENTRICITY":"0.00012540","FILE":"3111873","GP_ID":"184406516","TIME_SYSTEM":"UTC","OBJECT_ID":"2020-038BD","MEAN_MOTION":"15.06397552","RA_OF_ASC_NODE":"7.5497","INCLINATION":"53.0557","RCS_SIZE":"LARGE","COUNTRY_CODE":"US","EPOCH":"2021-09-09T18:11:42.641952","DECAY_DATE":null,"EPHEMERIS_TYPE":"0","CLASSIFICATION_TYPE":"U","REV_AT_EPOCH":"6927","NORAD_CAT_ID":"45781","SITE":"AFETR"},{"PERIAPSIS":"546.295","PERIOD":"95.593","SEMIMAJOR_AXIS":"6925.368","TLE_LINE2":"2 45782  53.0562   7.8716 0001354 107.5672 252.5465 15.06393631 69279","MEAN_ELEMENT_THEORY":"SGP4","MEAN_MOTION_DOT":"-0.00000381","OBJECT_TYPE":"PAYLOAD","ARG_OF_PERICENTER":"107.5672","ELEMENT_SET_NO":"999","REF_FRAME":"TEME","BSTAR":"-0.00000669490000","CENTER_NAME":"EARTH","OBJECT_NAME":"STARLINK-1498","TLE_LINE1":"1 45782U 20038BE  21252.68442219 -.00000381  00000-0 -66949-5 0  9990","MEAN_MOTION_DDOT":"0.0000000000000","LAUNCH_DATE":"2020-06-13","RCS_SIZE":"LARGE","EPOCH":"2021-09-09T16:25:34.077216","COUNTRY_CODE":"US","INCLINATION":"53.0562","NORAD_CAT_ID":"45782","SITE":"AFETR","EPHEMERIS_TYPE":"0","DECAY_DATE":null,"CLASSIFICATION_TYPE":"U","REV_AT_EPOCH":"6927","FILE":"3111873","GP_ID":"184406766","APOAPSIS":"548.171","MEAN_ANOMALY":"252.5465","ECCENTRICITY":"0.00013540","MEAN_MOTION":"15.06393631","RA_OF_ASC_NODE":"7.8716","TIME_SYSTEM":"UTC","OBJECT_ID":"2020-038BE"},{"EPHEMERIS_TYPE":"0","DECAY_DATE":null,"REV_AT_EPOCH":"6929","CLASSIFICATION_TYPE":"U","NORAD_CAT_ID":"45783","SITE":"AFETR","INCLINATION":"53.0551","RCS_SIZE":"LARGE","EPOCH":"2021-09-09T19:41:57.196896","COUNTRY_CODE":"US","OBJECT_ID":"2020-038BF","TIME_SYSTEM":"UTC","RA_OF_ASC_NODE":"7.2531","MEAN_MOTION":"15.06394348","MEAN_ANOMALY":"243.1160","APOAPSIS":"548.125","ECCENTRICITY":"0.00012910","FILE":"3111873","GP_ID":"184407518","ELEMENT_SET_NO":"999","MEAN_ELEMENT_THEORY":"SGP4","MEAN_MOTION_DOT":"-0.00000225","OBJECT_TYPE":"PAYLOAD","ARG_OF_PERICENTER":"116.9961","PERIOD":"95.592","SEMIMAJOR_AXIS":"6925.366","TLE_LINE2":"2 45783  53.0551   7.2531 0001291 116.9961 243.1160 15.06394348 69298","PERIAPSIS":"546.337","LAUNCH_DATE":"2020-06-13","MEAN_MOTION_DDOT":"0.0000000000000","OBJECT_NAME":"STARLINK-1505","CENTER_NAME":"EARTH","TLE_LINE1":"1 45783U 20038BF  21252.82080089 -.00000225  00000-0  38020-5 0  9995","REF_FRAME":"TEME","BSTAR":"0.00000380200000"},{"ECCENTRICITY":"0.00012620","MEAN_ANOMALY":"265.4063","APOAPSIS":"548.096","GP_ID":"184407758","FILE":"3111873","OBJECT_ID":"2020-038BG","TIME_SYSTEM":"UTC","RA_OF_ASC_NODE":"7.3790","MEAN_MOTION":"15.06397259","INCLINATION":"53.0563","COUNTRY_CODE":"US","EPOCH":"2021-09-09T19:04:47.703648","RCS_SIZE":"LARGE","CLASSIFICATION_TYPE":"U","REV_AT_EPOCH":"6928","DECAY_DATE":null,"EPHEMERIS_TYPE":"0","SITE":"AFETR","NORAD_CAT_ID":"45784","TLE_LINE1":"1 45784U 20038BG  21252.79499657 -.00000111  00000-0  11462-4 0  9991","CENTER_NAME":"EARTH","OBJECT_NAME":"STARLINK-1510","BSTAR":"0.00001146200000","REF_FRAME":"TEME","LAUNCH_DATE":"2020-06-13","MEAN_MOTION_DDOT":"0.0000000000000","TLE_LINE2":"2 45784  53.0563   7.3790 0001262  94.7070 265.4063 15.06397259 69284","SEMIMAJOR_AXIS":"6925.357","PERIOD":"95.592","PERIAPSIS":"546.348","ELEMENT_SET_NO":"999","ARG_OF_PERICENTER":"94.7070","OBJECT_TYPE":"PAYLOAD","MEAN_MOTION_DOT":"-0.00000111","MEAN_ELEMENT_THEORY":"SGP4"},{"GP_ID":"184406017","FILE":"3111873","ECCENTRICITY":"0.00012400","MEAN_ANOMALY":"245.6005","APOAPSIS":"548.094","MEAN_MOTION":"15.06392998","RA_OF_ASC_NODE":"8.0623","OBJECT_ID":"2020-038BH","TIME_SYSTEM":"UTC","COUNTRY_CODE":"US","EPOCH":"2021-09-09T15:27:10.609920","RCS_SIZE":"LARGE","INCLINATION":"53.0548","SITE":"AFETR","NORAD_CAT_ID":"45785","CLASSIFICATION_TYPE":"U","REV_AT_EPOCH":"6926","DECAY_DATE":null,"EPHEMERIS_TYPE":"0","BSTAR":"0.00010170000000","REF_FRAME":"TEME","TLE_LINE1":"1 45785U 20038BH  21252.64387280  .00001233  00000-0  10170-3 0  9993","CENTER_NAME":"EARTH","OBJECT_NAME":"STARLINK-1512","MEAN_MOTION_DDOT":"0.0000000000000","LAUNCH_DATE":"2020-06-13","PERIAPSIS":"546.376","TLE_LINE2":"2 45785  53.0548   8.0623 0001240 114.5113 245.6005 15.06392998 69265","SEMIMAJOR_AXIS":"6925.370","PERIOD":"95.593","ARG_OF_PERICENTER":"114.5113","OBJECT_TYPE":"PAYLOAD","MEAN_ELEMENT_THEORY":"SGP4","MEAN_MOTION_DOT":"0.00001233","ELEMENT_SET_NO":"999"}];
